STARLINK-34943          
1 65366U 25190R   26068.56993954  .00011965  00000+0  41569-3 0  9994
2 65366  53.1576 168.9653 0001206  77.6681 282.4454 15.30181050 29269
2025-313BE              
1 67482U 25313BE  26068.69721505  .00077178  00000+0  26504-2 0  9996
2 67482  97.3989 145.3568 0007208 335.3714  24.7181 15.29801687  7972
