[{"OBJECT_NAME":"STARLINK-34943","OBJECT_ID":"2025-190R","EPOCH":"2026-03-09T13:40:42.776256","MEAN_MOTION":15.3018105,"ECCENTRICITY":0.0001206,"INCLINATION":53.1576,"RA_OF_ASC_NODE":168.9653,"ARG_OF_PERICENTER":77.6681,"MEAN_ANOMALY":282.4454,"EPHEMERIS_TYPE":0,"CLASSIFICATION_TYPE":"U","NORAD_CAT_ID":65366,"ELEMENT_SET_NO":999,"REV_AT_EPOCH":2926,"BSTAR":0.00041569,"MEAN_MOTION_DOT":0.00011965,"MEAN_MOTION_DDOT":0},{"OBJECT_NAME":"OBJECT BE","OBJECT_ID":"2025-313BE","EPOCH":"2026-03-09T16:43:59.380320","MEAN_MOTION":15.29801687,"ECCENTRICITY":0.00072083,"INCLINATION":97.3989,"RA_OF_ASC_NODE":145.3568,"ARG_OF_PERICENTER":335.3714,"MEAN_ANOMALY":24.7181,"EPHEMERIS_TYPE":0,"CLASSIFICATION_TYPE":"U","NORAD_CAT_ID":67482,"ELEMENT_SET_NO":999,"REV_AT_EPOCH":797,"BSTAR":0.0026504328,"MEAN_MOTION_DOT":0.00077178,"MEAN_MOTION_DDOT":0}]
